#aV2020  1 14  0  0  0.00000000     288 DD+AD WGS84 FIT  NGA
## 2088 172800.00000000   300.00000000 58862 0.0000000000000
+   32     1  2  3  4  5  6  7  8  9 10 11 12 13 14 15 16 17
+         18 19 20 21 22 23 24 25 26 27 28 29 30 31 32  0  0
+          0  0  0  0  0  0  0  0  0  0  0  0  0  0  0  0  0
+          0  0  0  0  0  0  0  0  0  0  0  0  0  0  0  0  0
+          0  0  0  0  0  0  0  0  0  0  0  0  0  0  0  0  0
++         2  2  2  2  2  2  2  2  2  2  2  2  2  2  2  2  2
++         2  2  2  2  2  2  2  2  2  2  2  2  2  2  2  0  0
++         0  0  0  0  0  0  0  0  0  0  0  0  0  0  0  0  0
++         0  0  0  0  0  0  0  0  0  0  0  0  0  0  0  0  0
++         0  0  0  0  0  0  0  0  0  0  0  0  0  0  0  0  0
%c cc cc ccc ccc cccc cccc cccc cccc ccccc ccccc ccccc ccccc
%c cc cc ccc ccc cccc cccc cccc cccc ccccc ccccc ccccc ccccc
%f  0.0000000  0.000000000  0.00000000000  0.000000000000000
%f  0.0000000  0.000000000  0.00000000000  0.000000000000000
%i    0    0    0    0      0      0      0      0         0
%i    0    0    0    0      0      0      0      0         0
/*      NGA, ST. LOUIS,MO.                                  
/*   EPHEMERIS COMPUTED FROM 2 DAYS OF DATA                 
/*   EPOCHA v5 SMOOTHER                                     
/*   G1762 IERS2010 SATAF SATAPC                            
*  2020  1 14  9 45  0.00000000
P  1    621.830457  15192.832912 -21949.048465   -262.012827                    
V  1 -26414.401273   7170.923810   4570.290141     -0.121563                    
P  2  20058.060330 -14742.885372   9748.271394   -385.634934                    
V  2  11686.417725  -1600.551211 -28428.086618     -0.071885                    
P  3  10569.085450  21373.547807 -11854.715341    -72.117672                    
V  3 -12316.862926  -8702.610433 -26712.287162     -0.077522                    
P  4    596.400652  24559.633644  10077.145159    -34.160407                    
V  4  -5837.975920  11668.866832 -28128.087033     -0.054503                    
P  5   9002.113224 -12490.899051  21497.224518     -6.077082                    
V  5  20805.318303  18232.848261   2061.988886     -0.005329                    
P  6  25765.114740  -6132.444541  -2188.171848   -181.789395                    
V  6  -2080.714681   2949.838834 -31951.974169     -0.102644                    
P  7  18241.733221   8134.989286  18021.504807   -191.809658                    
V  7 -20951.780595   7344.437212  17708.385372     -0.083042                    
P  8  -5886.365147  25765.211753    154.225192    -20.161985                    
V  8  -2634.611287   -750.797047  32113.551213     -0.013056                    
P  9   8557.740445  18170.398654  17316.475142   -132.123334                    
V  9  -6665.710651  21184.523147 -18886.438552     -0.087657                    
P 10 -21802.265591  -8456.877000 -12736.538035   -208.953123                    
V 10 -10371.544224 -12604.469937  25748.306955     -0.136187                    
P 11  -3315.447484  20820.268346 -16802.629243   -390.543845                    
V 11 -16638.412612  12195.398480  18645.982004      0.108649                    
P 12  -5988.396864 -21359.031763 -14959.700931    162.487113                    
V 12  13566.253943  12652.408744 -23685.637516     -0.040957                    
P 13  13110.747854 -22088.051064   6469.976648    -20.043571                    
V 13   -552.628993   8760.609035  30518.361394      0.025757                    
P 14 -16320.765369  11595.654101 -17032.151890    -38.859501                    
V 14   5072.924353 -21843.867405 -19541.971786      0.022910                    
P 15   2821.857862 -26189.284889   -950.117518   -258.704307                    
V 15   4264.898730   -301.497418  31224.485898      0.026355                    
P 16 -10415.282857  10375.153253  21908.600636   -113.441713                    
V 16 -18917.193889 -20996.561709   1376.755667     -0.040077                    
P 17  15038.963851   -493.143326 -21452.875862    198.370055                    
V 17  -7668.480207  27148.093322  -5940.911815      0.066181                    
P 18  -8077.822766  17136.528018 -19084.385612    113.339435                    
V 18 -22353.115649   6469.236133  15778.677871      0.024255                    
P 19  16581.241954  -8457.629253 -19242.897233   -212.682420                    
V 19  -6922.371757  22749.076632 -16201.400217      0.051719                    
P 20 -22418.792352 -14284.444880  -2268.932391    527.791876                    
V 20   -176.749712  -4449.090259  30822.494381      0.000403                    
P 21 -19819.686475  -5894.530876  17335.044351    -55.947851                    
V 21  18725.374698  -8827.823603  19534.502369      0.055916                    
P 22   3916.214111  19676.268393 -17238.476817   -781.863014                    
V 22 -18805.145947 -12329.072618 -18005.404128     -0.013222                    
P 23   3254.297295  23772.249635  11312.173393   -143.188203                    
V 23  -5969.537742  13045.548304 -26902.450496      0.024794                    
P 24    958.075892 -16611.524679 -20824.345790     -7.545851                    
V 24  24985.253970  -7887.294380   7871.568801     -0.005231                    
P 25 -17011.342720 -20200.396496  -4195.288696    -16.044709                    
V 25   5213.976739   1783.997674 -31145.001781      0.007707                    
P 26 -17548.972162   3275.660580  19706.943356    127.018911                    
V 26 -17893.057824 -17576.527183 -12782.567031      0.079844                    
P 27 -12278.460449  20778.662874  10592.268074   -180.743456                    
V 27    982.620392 -13859.019268  28331.938947     -0.113368                    
P 28  20324.904275   9277.799411 -13660.368519    745.352752                    
V 28  10606.902119  15141.584866  25119.428581     -0.021165                    
P 29  -6401.485085 -18740.338051  17659.077829     -7.163787                    
V 29   7877.213767 -21041.508475 -19459.166266     -0.095849                    
P 30  24997.088708    607.559963   9273.666086   -128.957295                    
V 30 -10601.438620   5809.372639  28085.987667     -0.088180                    
P 31 -25847.750351   7133.149116    344.838372    -16.446148                    
V 31  -1099.543136  -2299.991253 -31389.246906     -0.025221                    
P 32 -15742.916695   1501.538898 -21258.720238    184.526232                    
V 32   5530.325802 -26614.296354  -6091.668915      0.106284                    
EOF
